[{"OBJECT_NAME":"ONEWEB-0166","OBJECT_ID":"2021-025Z","EPOCH":"2026-03-09T19:28:21.032256","MEAN_MOTION":13.13470367,"ECCENTRICITY":0.00017705,"INCLINATION":87.9042,"RA_OF_ASC_NODE":339.9637,"ARG_OF_PERICENTER":72.1625,"MEAN_ANOMALY":287.9698,"EPHEMERIS_TYPE":0,"CLASSIFICATION_TYPE":"U","NORAD_CAT_ID":48065,"ELEMENT_SET_NO":999,"REV_AT_EPOCH":24060,"BSTAR":0.001020683,"MEAN_MOTION_DOT":3.85e-6,"MEAN_MOTION_DDOT":0},{"OBJECT_NAME":"OBJECT F","OBJECT_ID":"2021-020F","EPOCH":"2026-03-09T23:34:00.416064","MEAN_MOTION":13.44626351,"ECCENTRICITY":0.01637521,"INCLINATION":63.408,"RA_OF_ASC_NODE":160.6649,"ARG_OF_PERICENTER":1.5906,"MEAN_ANOMALY":358.5607,"EPHEMERIS_TYPE":0,"CLASSIFICATION_TYPE":"U","NORAD_CAT_ID":47859,"ELEMENT_SET_NO":999,"REV_AT_EPOCH":24506,"BSTAR":0.00039011787,"MEAN_MOTION_DOT":1.57e-6,"MEAN_MOTION_DDOT":0}]
